COSMOS 2251 DEB         
1 34021U 93036HG  17345.90570135  .00000242  00000-0  80119-4 0  9992
2 34021  74.0393 170.1755 0023020 314.9087 163.7861 14.42996352464217
